0 DELTA 1 R/B(2)
1 05977U 69011B   13282.71582144  .00007253  00000-0  11739-2 0    84
2 05977 029.4416 140.8034 5963232 323.5999 242.2843 04.10657837295525
0 DELTA 1 R/B(2)
1 05977U 69011B   13283.77456240  .00009563  00000-0  14458-2 0    96
2 05977 029.4429 139.9956 5965417 324.8791 007.5193 04.10659285295509
0 DELTA 1 R/B(2)
1 05977U 69011B   13283.78197133  .00007615  00000-0  12393-2 0   104
2 05977 029.4427 139.9961 5962907 324.8957 018.4052 04.10680787295560
0 DELTA 1 R/B(2)
1 05977U 69011B   13285.73335341  .00007662  00000-0  12555-2 0   119
2 05977 029.4456 138.5190 5962297 327.2548 023.4326 04.10706897295646
0 DELTA 1 R/B(2)
1 05977U 69011B   13286.40901751  .00007339  00000-0  12029-2 0   126
2 05977 029.4462 138.0076 5962092 328.0703 302.4240 04.10717052295679
0 DELTA 1 R/B(2)
1 05977U 69011B   13287.67773697  .00008504  00000-0  13974-2 0   138
2 05977 029.4475 137.0476 5961707 329.6059 018.3342 04.10740528295725
0 DELTA 1 R/B(2)
1 05977U 69011B   13289.62257885  .00008692  00000-0  14398-2 0   141
2 05977 029.4481 135.5746 5961108 331.9591 014.1810 04.10773828295809
0 DELTA 1 R/B(2)
1 05977U 69011B   13290.59057122 -.00029512  00000-0  00000+0 0   160
2 05977 029.4541 134.8345 5962948 333.1354 005.6607 04.10734393295844
0 DELTA 1 R/B(2)
1 05977U 69011B   13291.75653722  .00008803  00000-0  14822-2 0   155
2 05977 029.4527 133.9635 5960524 334.5413 289.9575 04.10806887295893
0 DELTA 1 R/B(2)
1 05977U 69011B   13292.79103197  .00008935  00000-0  15184-2 0   165
2 05977 029.4519 133.1790 5960270 335.7990 019.8933 04.10823269295935
0 DELTA 1 R/B(2)
1 05977U 69011B   13293.76293973  .00009061  00000-0  15534-2 0   176
2 05977 029.4519 132.4428 5960014 336.9801 017.3151 04.10842402295974
0 DELTA 1 R/B(2)
1 05977U 69011B   13294.73563375  .00008783  00000-0  15170-2 0   187
2 05977 029.4504 131.7056 5959767 338.1632 015.9459 04.10865092296017
0 DELTA 1 R/B(2)
1 05977U 69011B   13295.70764366  .00008637  00000-0  15037-2 0   199
2 05977 029.4518 130.9712 5959504 339.3403 013.6372 04.10882934296057
